ONEWEB-0643             
1 55807U 23029M   25288.50154357 -.00000098  00000+0 -30012-3 0  9993
2 55807  87.9041 338.4811 0002485 110.7750 249.3646 13.14502577127249
ONEWEB-0644             
1 55808U 23029N   25288.20526275  .00000041  00000+0  69149-4 0  9993
2 55808  87.9259 353.7343 0002121 113.1802 246.9554 13.19727464126590
ONEWEB-0645             
1 55809U 23029P   25288.20133519  .00000000  00000+0 -32804-4 0  9993
2 55809  87.9258 353.7190 0001675 116.1697 243.9609 13.19727401126597
ONEWEB-0646             
1 55810U 23029Q   25288.24475356 -.00000005  00000+0 -45249-4 0  9990
2 55810  87.9264 353.7102 0002096 107.4806 252.6556 13.19726945126581
ONEWEB-0648             
1 55811U 23029R   25288.54593246 -.00000246  00000+0 -69849-3 0  9991
2 55811  87.9030 338.4378 0001929 128.6489 231.4814 13.14506044127252
ONEWEB-0649             
1 55812U 23029S   25288.57329931 -.00000059  00000+0 -17915-3 0  9992
2 55812  87.9265 353.6388 0001930 114.1771 245.9563 13.19724149126667
ONEWEB-0650             
1 55813U 23029T   25288.41693613 -.00000071  00000+0 -20890-3 0  9997
2 55813  87.9264 353.6791 0001998 105.4353 254.7000 13.19727194126610
ONEWEB-0652             
1 55814U 23029U   25288.60303451  .00000159  00000+0  39382-3 0  9998
2 55814  87.9043 338.4452 0001943  92.9779 267.1573 13.14502176127231
ONEWEB-0653             
1 55815U 23029V   25288.20657373 -.00000793  00000+0 -21731-2 0  9994
2 55815  87.9042 338.5142 0001746  93.4787 266.6543 13.14506848127213
ONEWEB-0654             
1 55816U 23029W   25288.20183021  .00000192  00000+0  48352-3 0  9999
2 55816  87.9040 338.5139 0001820  86.7438 273.3900 13.14502217127239
ONEWEB-0656             
1 55817U 23029X   25288.50966358 -.00000069  00000+0 -20102-3 0  9993
2 55817  87.9221 323.2208 0001890  81.6587 278.4761 13.20770774128857
ONEWEB-0657             
1 55818U 23029Y   25288.63963740 -.00000117  00000+0 -32560-3 0  9995
2 55818  87.9259 353.6381 0002569  88.7608 271.3819 13.19727218126659
ONEWEB-0658             
1 55819U 23029Z   25288.48326554  .00000035  00000+0  55899-4 0  9993
2 55819  87.9277 353.6122 0002196 111.3550 248.7817 13.19725036126649
ONEWEB-0660             
1 55820U 23029AA  25288.17962459 -.00000174  00000+0 -50413-3 0  9993
2 55820  87.9048 338.4924 0001671 105.3532 254.7782 13.14503607127213
ONEWEB-0661             
1 55821U 23029AB  25288.44286393  .00000167  00000+0  41488-3 0  9992
2 55821  87.9047 338.5105 0001603 103.7777 256.3531 13.14504082127233
ONEWEB-0662             
1 55822U 23029AC  25288.40162731 -.00000176  00000+0 -50877-3 0  9992
2 55822  87.9045 338.5236 0001708 107.9393 252.1923 13.14503708127270
