[{"OBJECT_NAME":"ONEWEB-0643","OBJECT_ID":"2023-029M","EPOCH":"2025-10-15T12:02:13.364448","MEAN_MOTION":13.14502577,"ECCENTRICITY":0.00024854,"INCLINATION":87.9041,"RA_OF_ASC_NODE":338.4811,"ARG_OF_PERICENTER":110.775,"MEAN_ANOMALY":249.3646,"EPHEMERIS_TYPE":0,"CLASSIFICATION_TYPE":"U","NORAD_CAT_ID":55807,"ELEMENT_SET_NO":999,"REV_AT_EPOCH":12724,"BSTAR":-0.00030012288,"MEAN_MOTION_DOT":-9.8e-7,"MEAN_MOTION_DDOT":0},{"OBJECT_NAME":"ONEWEB-0644","OBJECT_ID":"2023-029N","EPOCH":"2025-10-15T04:55:34.701600","MEAN_MOTION":13.19727464,"ECCENTRICITY":0.00021211,"INCLINATION":87.9259,"RA_OF_ASC_NODE":353.7343,"ARG_OF_PERICENTER":113.1802,"MEAN_ANOMALY":246.9554,"EPHEMERIS_TYPE":0,"CLASSIFICATION_TYPE":"U","NORAD_CAT_ID":55808,"ELEMENT_SET_NO":999,"REV_AT_EPOCH":12659,"BSTAR":6.9148724e-5,"MEAN_MOTION_DOT":4.1e-7,"MEAN_MOTION_DDOT":0},{"OBJECT_NAME":"ONEWEB-0645","OBJECT_ID":"2023-029P","EPOCH":"2025-10-15T04:49:55.360416","MEAN_MOTION":13.19727401,"ECCENTRICITY":0.00016753,"INCLINATION":87.9258,"RA_OF_ASC_NODE":353.719,"ARG_OF_PERICENTER":116.1697,"MEAN_ANOMALY":243.9609,"EPHEMERIS_TYPE":0,"CLASSIFICATION_TYPE":"U","NORAD_CAT_ID":55809,"ELEMENT_SET_NO":999,"REV_AT_EPOCH":12659,"BSTAR":-3.2803734e-5,"MEAN_MOTION_DOT":0,"MEAN_MOTION_DDOT":0},{"OBJECT_NAME":"ONEWEB-0646","OBJECT_ID":"2023-029Q","EPOCH":"2025-10-15T05:52:26.707584","MEAN_MOTION":13.19726945,"ECCENTRICITY":0.00020962,"INCLINATION":87.9264,"RA_OF_ASC_NODE":353.7102,"ARG_OF_PERICENTER":107.4806,"MEAN_ANOMALY":252.6556,"EPHEMERIS_TYPE":0,"CLASSIFICATION_TYPE":"U","NORAD_CAT_ID":55810,"ELEMENT_SET_NO":999,"REV_AT_EPOCH":12658,"BSTAR":-4.5248873e-5,"MEAN_MOTION_DOT":-5.0e-8,"MEAN_MOTION_DDOT":0},{"OBJECT_NAME":"ONEWEB-0648","OBJECT_ID":"2023-029R","EPOCH":"2025-10-15T13:06:08.564544","MEAN_MOTION":13.14506044,"ECCENTRICITY":0.00019296,"INCLINATION":87.903,"RA_OF_ASC_NODE":338.4378,"ARG_OF_PERICENTER":128.6489,"MEAN_ANOMALY":231.4814,"EPHEMERIS_TYPE":0,"CLASSIFICATION_TYPE":"U","NORAD_CAT_ID":55811,"ELEMENT_SET_NO":999,"REV_AT_EPOCH":12725,"BSTAR":-0.00069848888,"MEAN_MOTION_DOT":-2.46e-6,"MEAN_MOTION_DDOT":0},{"OBJECT_NAME":"ONEWEB-0649","OBJECT_ID":"2023-029S","EPOCH":"2025-10-15T13:45:33.060384","MEAN_MOTION":13.19724149,"ECCENTRICITY":0.00019302,"INCLINATION":87.9265,"RA_OF_ASC_NODE":353.6388,"ARG_OF_PERICENTER":114.1771,"MEAN_ANOMALY":245.9563,"EPHEMERIS_TYPE":0,"CLASSIFICATION_TYPE":"U","NORAD_CAT_ID":55812,"ELEMENT_SET_NO":999,"REV_AT_EPOCH":12666,"BSTAR":-0.00017915227,"MEAN_MOTION_DOT":-5.9e-7,"MEAN_MOTION_DDOT":0},{"OBJECT_NAME":"ONEWEB-0650","OBJECT_ID":"2023-029T","EPOCH":"2025-10-15T10:00:23.281632","MEAN_MOTION":13.19727194,"ECCENTRICITY":0.00019981,"INCLINATION":87.9264,"RA_OF_ASC_NODE":353.6791,"ARG_OF_PERICENTER":105.4353,"MEAN_ANOMALY":254.7,"EPHEMERIS_TYPE":0,"CLASSIFICATION_TYPE":"U","NORAD_CAT_ID":55813,"ELEMENT_SET_NO":999,"REV_AT_EPOCH":12661,"BSTAR":-0.00020889842,"MEAN_MOTION_DOT":-7.1e-7,"MEAN_MOTION_DDOT":0},{"OBJECT_NAME":"ONEWEB-0652","OBJECT_ID":"2023-029U","EPOCH":"2025-10-15T14:28:22.181664","MEAN_MOTION":13.14502176,"ECCENTRICITY":0.00019433,"INCLINATION":87.9043,"RA_OF_ASC_NODE":338.4452,"ARG_OF_PERICENTER":92.9779,"MEAN_ANOMALY":267.1573,"EPHEMERIS_TYPE":0,"CLASSIFICATION_TYPE":"U","NORAD_CAT_ID":55814,"ELEMENT_SET_NO":999,"REV_AT_EPOCH":12723,"BSTAR":0.00039381524,"MEAN_MOTION_DOT":1.59e-6,"MEAN_MOTION_DDOT":0},{"OBJECT_NAME":"ONEWEB-0653","OBJECT_ID":"2023-029V","EPOCH":"2025-10-15T04:57:27.970272","MEAN_MOTION":13.14506848,"ECCENTRICITY":0.00017463,"INCLINATION":87.9042,"RA_OF_ASC_NODE":338.5142,"ARG_OF_PERICENTER":93.4787,"MEAN_ANOMALY":266.6543,"EPHEMERIS_TYPE":0,"CLASSIFICATION_TYPE":"U","NORAD_CAT_ID":55815,"ELEMENT_SET_NO":999,"REV_AT_EPOCH":12721,"BSTAR":-0.0021731384,"MEAN_MOTION_DOT":-7.93e-6,"MEAN_MOTION_DDOT":0},{"OBJECT_NAME":"ONEWEB-0654","OBJECT_ID":"2023-029W","EPOCH":"2025-10-15T04:50:38.130144","MEAN_MOTION":13.14502217,"ECCENTRICITY":0.00018203,"INCLINATION":87.904,"RA_OF_ASC_NODE":338.5139,"ARG_OF_PERICENTER":86.7438,"MEAN_ANOMALY":273.39,"EPHEMERIS_TYPE":0,"CLASSIFICATION_TYPE":"U","NORAD_CAT_ID":55816,"ELEMENT_SET_NO":999,"REV_AT_EPOCH":12723,"BSTAR":0.00048352405,"MEAN_MOTION_DOT":1.92e-6,"MEAN_MOTION_DDOT":0},{"OBJECT_NAME":"ONEWEB-0656","OBJECT_ID":"2023-029X","EPOCH":"2025-10-15T12:13:54.933312","MEAN_MOTION":13.20770774,"ECCENTRICITY":0.00018909,"INCLINATION":87.9221,"RA_OF_ASC_NODE":323.2208,"ARG_OF_PERICENTER":81.6587,"MEAN_ANOMALY":278.4761,"EPHEMERIS_TYPE":0,"CLASSIFICATION_TYPE":"U","NORAD_CAT_ID":55817,"ELEMENT_SET_NO":999,"REV_AT_EPOCH":12885,"BSTAR":-0.00020101637,"MEAN_MOTION_DOT":-6.9e-7,"MEAN_MOTION_DDOT":0},{"OBJECT_NAME":"ONEWEB-0657","OBJECT_ID":"2023-029Y","EPOCH":"2025-10-15T15:21:04.671360","MEAN_MOTION":13.19727218,"ECCENTRICITY":0.00025699,"INCLINATION":87.9259,"RA_OF_ASC_NODE":353.6381,"ARG_OF_PERICENTER":88.7608,"MEAN_ANOMALY":271.3819,"EPHEMERIS_TYPE":0,"CLASSIFICATION_TYPE":"U","NORAD_CAT_ID":55818,"ELEMENT_SET_NO":999,"REV_AT_EPOCH":12665,"BSTAR":-0.00032560012,"MEAN_MOTION_DOT":-1.17e-6,"MEAN_MOTION_DDOT":0},{"OBJECT_NAME":"ONEWEB-0658","OBJECT_ID":"2023-029Z","EPOCH":"2025-10-15T11:35:54.142656","MEAN_MOTION":13.19725036,"ECCENTRICITY":0.00021966,"INCLINATION":87.9277,"RA_OF_ASC_NODE":353.6122,"ARG_OF_PERICENTER":111.355,"MEAN_ANOMALY":248.7817,"EPHEMERIS_TYPE":0,"CLASSIFICATION_TYPE":"U","NORAD_CAT_ID":55819,"ELEMENT_SET_NO":999,"REV_AT_EPOCH":12664,"BSTAR":5.5898742e-5,"MEAN_MOTION_DOT":3.5e-7,"MEAN_MOTION_DDOT":0},{"OBJECT_NAME":"ONEWEB-0660","OBJECT_ID":"2023-029AA","EPOCH":"2025-10-15T04:18:39.564576","MEAN_MOTION":13.14503607,"ECCENTRICITY":0.00016711,"INCLINATION":87.9048,"RA_OF_ASC_NODE":338.4924,"ARG_OF_PERICENTER":105.3532,"MEAN_ANOMALY":254.7782,"EPHEMERIS_TYPE":0,"CLASSIFICATION_TYPE":"U","NORAD_CAT_ID":55820,"ELEMENT_SET_NO":999,"REV_AT_EPOCH":12721,"BSTAR":-0.00050413269,"MEAN_MOTION_DOT":-1.74e-6,"MEAN_MOTION_DDOT":0},{"OBJECT_NAME":"ONEWEB-0661","OBJECT_ID":"2023-029AB","EPOCH":"2025-10-15T10:37:43.443552","MEAN_MOTION":13.14504082,"ECCENTRICITY":0.00016039,"INCLINATION":87.9047,"RA_OF_ASC_NODE":338.5105,"ARG_OF_PERICENTER":103.7777,"MEAN_ANOMALY":256.3531,"EPHEMERIS_TYPE":0,"CLASSIFICATION_TYPE":"U","NORAD_CAT_ID":55821,"ELEMENT_SET_NO":999,"REV_AT_EPOCH":12723,"BSTAR":0.00041488181,"MEAN_MOTION_DOT":1.67e-6,"MEAN_MOTION_DDOT":0},{"OBJECT_NAME":"ONEWEB-0662","OBJECT_ID":"2023-029AC","EPOCH":"2025-10-15T09:38:20.599584","MEAN_MOTION":13.14503708,"ECCENTRICITY":0.00017081,"INCLINATION":87.9045,"RA_OF_ASC_NODE":338.5236,"ARG_OF_PERICENTER":107.9393,"MEAN_ANOMALY":252.1923,"EPHEMERIS_TYPE":0,"CLASSIFICATION_TYPE":"U","NORAD_CAT_ID":55822,"ELEMENT_SET_NO":999,"REV_AT_EPOCH":12727,"BSTAR":-0.00050877414,"MEAN_MOTION_DOT":-1.76e-6,"MEAN_MOTION_DDOT":0}]
